ORBCOMM FM35            
1 25985U 99065F   26095.41641181  .00001275  00000+0  46494-3 0  9990
2 25985  45.0385 152.4662 0001517  40.2066 319.8895 14.37943706376838
ORBCOMM FM34            
1 25986U 99065G   26095.59741901  .00001026  00000+0  38394-3 0  9995
2 25986  45.0377 152.1377 0003342 334.9606  25.1080 14.37842982376973
ORBCOMM FM38            
1 33060U 08031A   26095.74672720  .00002488  00000+0  33030-3 0  9994
2 33060  48.4411 359.4161 0004842 226.5138 133.5376 14.82863127958147
ORBCOMM FM41            
1 33061U 08031B   26095.77596237  .00002510  00000+0  33666-3 0  9997
2 33061  48.4447   8.1192 0003977 211.4936 182.5699 14.82390087957620
ORBCOMM FM29            
1 33062U 08031C   26095.80395175  .00002295  00000+0  30888-3 0  9993
2 33062  48.4396  15.3619 0005563 209.8690 202.4821 14.82568029957542
ORBCOMM FM39            
1 33063U 08031D   26095.79118270  .00002326  00000+0  32477-3 0  9992
2 33063  48.4405  43.0984 0006222 178.4678 181.6257 14.80932665957143
ORBCOMM FM37            
1 33064U 08031E   26095.79657607  .00002324  00000+0  32315-3 0  9994
2 33064  48.4399  31.1441 0004994 199.8384 200.8295 14.81123800957406
ORBCOMM FM40            
1 33065U 08031F   26095.76175439  .00002950  00000+0  37818-3 0  9998
2 33065  48.4423  10.0223 0006107 215.3184 173.5978 14.83807450957584
VESSELSAT 1             
1 37840U 11058C   26095.72354397  .00000388  00000+0  66926-4 0  9990
2 37840  19.9609 123.6418 0013643 163.9197 196.1642 14.11426596747686
ORBCOMM FM109           
1 40086U 14040A   26095.63650037  .00000835  00000+0  21334-3 0  9990
2 40086  47.0030  74.4779 0002460 263.0306  97.0300 14.58766083623754
ORBCOMM FM107           
1 40087U 14040B   26095.64955814  .00000973  00000+0  24213-3 0  9995
2 40087  47.0047  75.2536 0001174 232.2887 127.7893 14.58853315623838
ORBCOMM FM106           
1 40088U 14040C   26095.78570698  .00001394  00000+0  25880-3 0  9993
2 40088  47.0594 232.9328 0016348 344.4644  15.5744 14.70374281626525
ORBCOMM FM111           
1 40089U 14040D   26095.88969857  .00002937  00000+0  33375-3 0  9996
2 40089  47.0011  41.6657 0028095 157.4491 202.7648 14.88512577633807
ORBCOMM FM104           
1 40090U 14040E   26095.75702442  .00000629  00000+0  17528-3 0  9997
2 40090  47.0039 111.9174 0015088 102.9060 257.3512 14.57206621623282
ORBCOMM FM103           
1 40091U 14040F   26095.63911063  .00000920  00000+0  23128-3 0  9993
2 40091  47.0050  76.0447 0001652 215.2290 144.8486 14.58756756606792
ORBCOMM FM114           
1 41179U 15081A   26095.65426512  .00000836  00000+0  21343-3 0  9992
2 41179  47.0066 344.9094 0002533 238.0422 122.0217 14.58776854547167
ORBCOMM FM119           
1 41180U 15081B   26095.86009204  .00000785  00000+0  20275-3 0  9998
2 41180  46.9996 253.2966 0001437 285.8876  74.1851 14.58718138548448
