[{"OBJECT_NAME":"ORBCOMM FM35","OBJECT_ID":"1999-065F","EPOCH":"2026-04-05T09:59:37.980384","MEAN_MOTION":14.37943706,"ECCENTRICITY":0.00015175,"INCLINATION":45.0385,"RA_OF_ASC_NODE":152.4662,"ARG_OF_PERICENTER":40.2066,"MEAN_ANOMALY":319.8895,"EPHEMERIS_TYPE":0,"CLASSIFICATION_TYPE":"U","NORAD_CAT_ID":25985,"ELEMENT_SET_NO":999,"REV_AT_EPOCH":37683,"BSTAR":0.00046493748,"MEAN_MOTION_DOT":1.275e-5,"MEAN_MOTION_DDOT":0},{"OBJECT_NAME":"ORBCOMM FM34","OBJECT_ID":"1999-065G","EPOCH":"2026-04-05T14:20:17.002464","MEAN_MOTION":14.37842982,"ECCENTRICITY":0.0003342,"INCLINATION":45.0377,"RA_OF_ASC_NODE":152.1377,"ARG_OF_PERICENTER":334.9606,"MEAN_ANOMALY":25.108,"EPHEMERIS_TYPE":0,"CLASSIFICATION_TYPE":"U","NORAD_CAT_ID":25986,"ELEMENT_SET_NO":999,"REV_AT_EPOCH":37697,"BSTAR":0.00038394,"MEAN_MOTION_DOT":1.026e-5,"MEAN_MOTION_DDOT":0},{"OBJECT_NAME":"ORBCOMM FM38","OBJECT_ID":"2008-031A","EPOCH":"2026-04-05T17:55:17.230080","MEAN_MOTION":14.82863127,"ECCENTRICITY":0.0004842,"INCLINATION":48.4411,"RA_OF_ASC_NODE":359.4161,"ARG_OF_PERICENTER":226.5138,"MEAN_ANOMALY":133.5376,"EPHEMERIS_TYPE":0,"CLASSIFICATION_TYPE":"U","NORAD_CAT_ID":33060,"ELEMENT_SET_NO":999,"REV_AT_EPOCH":95814,"BSTAR":0.0003303,"MEAN_MOTION_DOT":2.488e-5,"MEAN_MOTION_DDOT":0},{"OBJECT_NAME":"ORBCOMM FM41","OBJECT_ID":"2008-031B","EPOCH":"2026-04-05T18:37:23.148768","MEAN_MOTION":14.82390087,"ECCENTRICITY":0.0003977,"INCLINATION":48.4447,"RA_OF_ASC_NODE":8.1192,"ARG_OF_PERICENTER":211.4936,"MEAN_ANOMALY":182.5699,"EPHEMERIS_TYPE":0,"CLASSIFICATION_TYPE":"U","NORAD_CAT_ID":33061,"ELEMENT_SET_NO":999,"REV_AT_EPOCH":95762,"BSTAR":0.00033666,"MEAN_MOTION_DOT":2.51e-5,"MEAN_MOTION_DDOT":0},{"OBJECT_NAME":"ORBCOMM FM29","OBJECT_ID":"2008-031C","EPOCH":"2026-04-05T19:17:41.431200","MEAN_MOTION":14.82568029,"ECCENTRICITY":0.0005563,"INCLINATION":48.4396,"RA_OF_ASC_NODE":15.3619,"ARG_OF_PERICENTER":209.869,"MEAN_ANOMALY":202.4821,"EPHEMERIS_TYPE":0,"CLASSIFICATION_TYPE":"U","NORAD_CAT_ID":33062,"ELEMENT_SET_NO":999,"REV_AT_EPOCH":95754,"BSTAR":0.00030888,"MEAN_MOTION_DOT":2.295e-5,"MEAN_MOTION_DDOT":0},{"OBJECT_NAME":"ORBCOMM FM39","OBJECT_ID":"2008-031D","EPOCH":"2026-04-05T18:59:18.185280","MEAN_MOTION":14.80932665,"ECCENTRICITY":0.0006222,"INCLINATION":48.4405,"RA_OF_ASC_NODE":43.0984,"ARG_OF_PERICENTER":178.4678,"MEAN_ANOMALY":181.6257,"EPHEMERIS_TYPE":0,"CLASSIFICATION_TYPE":"U","NORAD_CAT_ID":33063,"ELEMENT_SET_NO":999,"REV_AT_EPOCH":95714,"BSTAR":0.00032477,"MEAN_MOTION_DOT":2.326e-5,"MEAN_MOTION_DDOT":0},{"OBJECT_NAME":"ORBCOMM FM37","OBJECT_ID":"2008-031E","EPOCH":"2026-04-05T19:07:04.172448","MEAN_MOTION":14.811238,"ECCENTRICITY":0.0004994,"INCLINATION":48.4399,"RA_OF_ASC_NODE":31.1441,"ARG_OF_PERICENTER":199.8384,"MEAN_ANOMALY":200.8295,"EPHEMERIS_TYPE":0,"CLASSIFICATION_TYPE":"U","NORAD_CAT_ID":33064,"ELEMENT_SET_NO":999,"REV_AT_EPOCH":95740,"BSTAR":0.00032315,"MEAN_MOTION_DOT":2.324e-5,"MEAN_MOTION_DDOT":0},{"OBJECT_NAME":"ORBCOMM FM40","OBJECT_ID":"2008-031F","EPOCH":"2026-04-05T18:16:55.579296","MEAN_MOTION":14.8380745,"ECCENTRICITY":0.0006107,"INCLINATION":48.4423,"RA_OF_ASC_NODE":10.0223,"ARG_OF_PERICENTER":215.3184,"MEAN_ANOMALY":173.5978,"EPHEMERIS_TYPE":0,"CLASSIFICATION_TYPE":"U","NORAD_CAT_ID":33065,"ELEMENT_SET_NO":999,"REV_AT_EPOCH":95758,"BSTAR":0.00037818,"MEAN_MOTION_DOT":2.95e-5,"MEAN_MOTION_DDOT":0},{"OBJECT_NAME":"VESSELSAT 1","OBJECT_ID":"2011-058C","EPOCH":"2026-04-05T17:21:54.199008","MEAN_MOTION":14.11426596,"ECCENTRICITY":0.0013643,"INCLINATION":19.9609,"RA_OF_ASC_NODE":123.6418,"ARG_OF_PERICENTER":163.9197,"MEAN_ANOMALY":196.1642,"EPHEMERIS_TYPE":0,"CLASSIFICATION_TYPE":"U","NORAD_CAT_ID":37840,"ELEMENT_SET_NO":999,"REV_AT_EPOCH":74768,"BSTAR":6.6926e-5,"MEAN_MOTION_DOT":3.88e-6,"MEAN_MOTION_DDOT":0},{"OBJECT_NAME":"ORBCOMM FM109","OBJECT_ID":"2014-040A","EPOCH":"2026-04-05T15:16:33.631968","MEAN_MOTION":14.58766083,"ECCENTRICITY":0.000246,"INCLINATION":47.003,"RA_OF_ASC_NODE":74.4779,"ARG_OF_PERICENTER":263.0306,"MEAN_ANOMALY":97.03,"EPHEMERIS_TYPE":0,"CLASSIFICATION_TYPE":"U","NORAD_CAT_ID":40086,"ELEMENT_SET_NO":999,"REV_AT_EPOCH":62375,"BSTAR":0.00021334,"MEAN_MOTION_DOT":8.35e-6,"MEAN_MOTION_DDOT":0},{"OBJECT_NAME":"ORBCOMM FM107","OBJECT_ID":"2014-040B","EPOCH":"2026-04-05T15:35:21.823296","MEAN_MOTION":14.58853315,"ECCENTRICITY":0.0001174,"INCLINATION":47.0047,"RA_OF_ASC_NODE":75.2536,"ARG_OF_PERICENTER":232.2887,"MEAN_ANOMALY":127.7893,"EPHEMERIS_TYPE":0,"CLASSIFICATION_TYPE":"U","NORAD_CAT_ID":40087,"ELEMENT_SET_NO":999,"REV_AT_EPOCH":62383,"BSTAR":0.00024213,"MEAN_MOTION_DOT":9.73e-6,"MEAN_MOTION_DDOT":0},{"OBJECT_NAME":"ORBCOMM FM106","OBJECT_ID":"2014-040C","EPOCH":"2026-04-05T18:51:25.083072","MEAN_MOTION":14.70374281,"ECCENTRICITY":0.0016348,"INCLINATION":47.0594,"RA_OF_ASC_NODE":232.9328,"ARG_OF_PERICENTER":344.4644,"MEAN_ANOMALY":15.5744,"EPHEMERIS_TYPE":0,"CLASSIFICATION_TYPE":"U","NORAD_CAT_ID":40088,"ELEMENT_SET_NO":999,"REV_AT_EPOCH":62652,"BSTAR":0.0002588,"MEAN_MOTION_DOT":1.394e-5,"MEAN_MOTION_DDOT":0},{"OBJECT_NAME":"ORBCOMM FM111","OBJECT_ID":"2014-040D","EPOCH":"2026-04-05T21:21:09.956448","MEAN_MOTION":14.88512577,"ECCENTRICITY":0.0028095,"INCLINATION":47.0011,"RA_OF_ASC_NODE":41.6657,"ARG_OF_PERICENTER":157.4491,"MEAN_ANOMALY":202.7648,"EPHEMERIS_TYPE":0,"CLASSIFICATION_TYPE":"U","NORAD_CAT_ID":40089,"ELEMENT_SET_NO":999,"REV_AT_EPOCH":63380,"BSTAR":0.00033375,"MEAN_MOTION_DOT":2.937e-5,"MEAN_MOTION_DDOT":0},{"OBJECT_NAME":"ORBCOMM FM104","OBJECT_ID":"2014-040E","EPOCH":"2026-04-05T18:10:06.909888","MEAN_MOTION":14.57206621,"ECCENTRICITY":0.0015088,"INCLINATION":47.0039,"RA_OF_ASC_NODE":111.9174,"ARG_OF_PERICENTER":102.906,"MEAN_ANOMALY":257.3512,"EPHEMERIS_TYPE":0,"CLASSIFICATION_TYPE":"U","NORAD_CAT_ID":40090,"ELEMENT_SET_NO":999,"REV_AT_EPOCH":62328,"BSTAR":0.00017528,"MEAN_MOTION_DOT":6.29e-6,"MEAN_MOTION_DDOT":0},{"OBJECT_NAME":"ORBCOMM FM103","OBJECT_ID":"2014-040F","EPOCH":"2026-04-05T15:20:19.158432","MEAN_MOTION":14.58756756,"ECCENTRICITY":0.0001652,"INCLINATION":47.005,"RA_OF_ASC_NODE":76.0447,"ARG_OF_PERICENTER":215.229,"MEAN_ANOMALY":144.8486,"EPHEMERIS_TYPE":0,"CLASSIFICATION_TYPE":"U","NORAD_CAT_ID":40091,"ELEMENT_SET_NO":999,"REV_AT_EPOCH":60679,"BSTAR":0.00023128,"MEAN_MOTION_DOT":9.2e-6,"MEAN_MOTION_DDOT":0},{"OBJECT_NAME":"ORBCOMM FM114","OBJECT_ID":"2015-081A","EPOCH":"2026-04-05T15:42:08.506368","MEAN_MOTION":14.58776854,"ECCENTRICITY":0.0002533,"INCLINATION":47.0066,"RA_OF_ASC_NODE":344.9094,"ARG_OF_PERICENTER":238.0422,"MEAN_ANOMALY":122.0217,"EPHEMERIS_TYPE":0,"CLASSIFICATION_TYPE":"U","NORAD_CAT_ID":41179,"ELEMENT_SET_NO":999,"REV_AT_EPOCH":54716,"BSTAR":0.00021343,"MEAN_MOTION_DOT":8.36e-6,"MEAN_MOTION_DDOT":0},{"OBJECT_NAME":"ORBCOMM FM119","OBJECT_ID":"2015-081B","EPOCH":"2026-04-05T20:38:31.952256","MEAN_MOTION":14.58718138,"ECCENTRICITY":0.0001437,"INCLINATION":46.9996,"RA_OF_ASC_NODE":253.2966,"ARG_OF_PERICENTER":285.8876,"MEAN_ANOMALY":74.1851,"EPHEMERIS_TYPE":0,"CLASSIFICATION_TYPE":"U","NORAD_CAT_ID":41180,"ELEMENT_SET_NO":999,"REV_AT_EPOCH":54844,"BSTAR":0.00020275,"MEAN_MOTION_DOT":7.85e-6,"MEAN_MOTION_DDOT":0}]
